{"fetched_at":"2026-03-29T16:36:15Z","count":15609,"tles":[{"name":"ONEWEB-0234","line1":"1 48783U 21045S   26087.92095675 -.00000079  00000+0 -24384-3 0  9999","line2":"2 48783  87.8929 275.1961 0001737  64.6709 295.4601 13.15546720233926","category":"Other"}]}